METEOR-M2 2             
1 44387U 19038A   25311.26037052  .00000246  00000+0  12635-3 0  9995
2 44387  98.8935 290.5613 0000670 355.6681   4.4492 14.24267752329707
COSMOS 2535             
1 44421U 19039A   25311.30236377  .00002629  00000+0  26978-3 0  9993
2 44421  97.6033 342.7280 0007337 224.1950 135.8684 14.91223879343566
GLOBAL-4                
1 44499U 19054E   25310.69759090  .00040913  00000+0  82637-3 0  9990
2 44499  45.0111  61.6576 0008368 297.8658  62.1384 15.45846527345738
ZY-1 02D                
1 44528U 19059A   25311.33863925  .00000334  00000+0  13085-3 0  9997
2 44528  98.3515  15.3276 0002421  82.1178 278.0282 14.35437758322515
TAURUS-1 (JINNIUZUO 1)  
1 44530U 19059C   25311.27725203  .00011358  00000+0  19753-2 0  9994
2 44530  98.6224  98.2037 0008784 284.0103  76.0123 14.68268234326030
ZHUHAI-1 03B            
1 44536U 19060C   25311.31422194  .00032152  00000+0  82332-3 0  9999
2 44536  97.5350  94.9065 0011765  48.2370 311.9879 15.39266766342020
ZHUHAI-1 03C            
1 44537U 19060D   25311.32101192  .00052831  00000+0  86316-3 0  9995
2 44537  97.5570 100.6645 0014858   6.7785 353.3665 15.52267208342399
ZHUHAI-1 03D            
1 44538U 19060E   25311.30634427  .00029516  00000+0  83708-3 0  9992
2 44538  97.5187  88.8474 0010662  32.7341 327.4562 15.36134333341860
ZHUHAI-1 03E            
1 44539U 19060F   25311.32755576  .00025171  00000+0  81103-3 0  9994
2 44539  97.5388  90.4775 0010968  86.8490 273.4006 15.32119172341695
ATLAS 5 CENTAUR DEB     
1 44694U 18079BG  25308.41775456 -.00000042  00000+0  00000+0 0  9994
2 44694  13.3794  57.5921 4744490 262.9646  42.9617  1.77426303 42572
GAOFEN-7                
1 44703U 19072A   25311.28899341  .00007611  00000+0  34318-3 0  9999
2 44703  97.2748  15.6950 0017032  94.3166 266.0017 15.21164740333906
STARLINK-1010           
1 44716U 19074D   25311.22762774  .00788884  33744-3  96355-3 0  9990
2 44716  53.0384 297.0078 0004836  85.1216 275.0369 16.07468774331384
JILIN-1 GAOFEN 2A       
1 44777U 19075A   25311.22738546  .00019747  00000+0  64175-3 0  9993
2 44777  97.5187  25.7768 0008291 149.1150 211.0581 15.31918768330816
NINGXIA-1 1             
1 44779U 19076A   25311.28154524 -.00000010  00000+0  77838-4 0  9995
2 44779  45.0061  91.4737 0011603 188.2555 171.8090 14.01991932306717
NINGXIA-1 5             
1 44783U 19076E   25311.29453709 -.00000002  00000+0  83353-4 0  9998
2 44783  45.0059  90.7619 0011362 177.3924 182.6971 14.01976913306632
KL-ALPHA A              
1 44785U 19077A   25311.31128671  .00000104  00000+0  13104-3 0  9999
2 44785  88.9142 246.9738 0012717  43.0429 317.1717 13.56013469295664
CARTOSAT-3              
1 44804U 19081A   25311.26141582  .00006941  00000+0  33196-3 0  9994
2 44804  97.4629  11.2841 0013137 206.1317 153.9256 15.19231202329776
JILIN-1 GAOFEN 2B       
1 44836U 19086A   25311.23835472  .00009521  00000+0  48048-3 0  9998
2 44836  97.5159  19.8175 0015432  18.6036 341.5758 15.17224652326798
DUCHIFAT-3              
1 44854U 19089C   25310.80961551  .00279683  00000+0  17918-2 0  9990
2 44854  36.9311 106.7797 0008698  14.7673 345.3345 15.74488600326423
ANGELS                  
1 44876U 19092D   25311.11751003  .00049265  00000+0  71153-3 0  9995
2 44876  97.4373 154.2808 0004430 315.5768  44.5130 15.55801482327444
TIANQIN 1 (CAS-6)       
1 44879U 19093A   25311.30719874  .00006410  00000+0  60878-3 0  9997
2 44879  97.7984  31.8211 0012888  75.6787 284.5862 14.93783333318901
ETRSS-1                 
1 44880U 19093B   25311.29579156  .00006501  00000+0  61414-3 0  9992
2 44880  97.7991  32.1171 0012915  76.3496 283.9161 14.93993230318900
TIANYAN 01              
1 44881U 19093C   25311.28278591  .00001641  00000+0  19368-3 0  9992
2 44881  97.7796  23.7029 0015125  96.3182 263.9756 14.85976792318455
TIANYAN 02              
1 44882U 19093D   25311.30060354  .00011416  00000+0  88699-3 0  9996
2 44882  97.8064  39.5216 0016490  65.0346 295.2589 15.01373700319271
CBERS 4A                
1 44883U 19093E   25311.30518628  .00001879  00000+0  24552-3 0  9999
2 44883  97.7788  20.3597 0002291 135.0963 225.0436 14.81605879318229
WEILAI 1R               
1 44884U 19093F   25311.30721642  .00009054  00000+0  77127-3 0  9991
2 44884  97.8026  36.0704 0010580  69.9327 290.3033 14.97959089319174
FLORIPASAT-1            
1 44885U 19093G   25311.24347925  .00008518  00000+0  67884-3 0  9996
2 44885  97.8075  39.2824 0011962  82.1986 278.0595 15.00539637319321
SHUNTIAN                
1 44886U 19093H   25311.25266185  .00005250  00000+0  50242-3 0  9996
2 44886  97.8148  35.6699 0013532  85.4446 274.8319 14.93560665319037
2019-093L               
1 44889U 19093L   25311.26413808  .00004871  00000+0  47581-3 0  9996
2 44889  97.7778  27.1638 0013425  72.0584 288.2098 14.92783348318679
ELEKTRO-L 3             
1 44903U 19095A   25311.11946913 -.00000090  00000+0  00000+0 0  9998
2 44903   0.0748  64.9887 0002590 197.5038 263.1518  1.00270687 21484
GONETS-M 14             
1 44905U 19096A   25311.27727009  .00000047  00000+0  26710-3 0  9992
2 44905  82.5255 222.1796 0012767 281.1767  78.7878 12.42898689266113
GONETS-M 15             
1 44906U 19096B   25311.30458693  .00000047  00000+0  26530-3 0  9997
2 44906  82.5275 222.5851 0015198 304.4319  55.5324 12.42863793266088
GONETS-M 16             
1 44907U 19096C   25311.25374965  .00000052  00000+0  30354-3 0  9996
2 44907  82.5221 221.6737 0011681 347.1810  12.8971 12.42860607266069
RS-44 & BREEZE-KM R/B   
1 44909U 19096E   25310.97290278  .00000010  00000+0  20364-5 0  9996
2 44909  82.5180 127.3788 0216658 304.0881  53.9825 12.79745226273920
JILIN-1 KUANFU 01       
1 45016U 20003A   25311.24566716  .00005830  00000+0  36865-3 0  9996
2 45016  97.5280  24.4331 0008100   4.4602 355.6698 15.09376062321839
XINGYUN-2 01            
1 45602U 20028A   25311.25654002  .00004153  00000+0  25647-3 0  9994
2 45602  97.4754 303.4554 0007662 243.8990 116.1452 15.10407561301324
XINGYUN-2 02            
1 45603U 20028B   25311.26804478  .00003602  00000+0  22395-3 0  9995
2 45603  97.5097 316.3490 0010063 323.0518  37.0018 15.10235298301329
HAIYANG-1D              
1 45721U 20036A   25311.32741459  .00000343  00000+0  13768-3 0  9994
2 45721  98.4307 253.1220 0004122  89.3681 270.7976 14.34217167283176
M2 PATHFINDER           
1 45727U 20037E   25311.03769324  .00003641  00000+0  27363-3 0  9990
2 45727  97.8152 134.9379 0012101 172.9609 187.1788 15.03177178292108
GAOFEN DUOMO (GFDM)     
1 45856U 20042A   25311.31434301  .00001509  00000+0  22116-3 0  9996
2 45856  97.8076  13.8932 0012988  73.1289 287.1345 14.76943271288261
ZINYUAN-3               
1 45939U 20051A   25311.33618970  .00009148  00000+0  41230-3 0  9991
2 45939  97.3125  20.8694 0004102  63.5052 296.6605 15.21251999293615
TYVAK-0172              
1 46267U 20059C   25311.10417144  .00045890  00000+0  93737-3 0  9992
2 46267  97.7339 178.9095 0002849  53.2898 306.8612 15.46029946284086
ION-MK01                
1 46274U 20061C   25311.19911731  .00060011  00000+0  67106-3 0  9996
2 46274  97.2243  20.7684 0001740  60.1942 299.9489 15.62555230288397
NEMO-HD                 
1 46277U 20061F   25311.27724362  .00014217  00000+0  36675-3 0  9994
2 46277  97.2259  10.8442 0002657 105.7003 254.4536 15.39270459287783
3CAT-5A                 
1 46292U 20061W   25311.15886333  .00017634  00000+0  47152-3 0  9993
2 46292  97.2755  10.1163 0002050 163.3336 196.7977 15.38121361286805
3CAT-5B                 
1 46293U 20061X   25311.16788443  .00017030  00000+0  44435-3 0  9999
2 46293  97.2760  10.7417 0002282 167.3739 192.7564 15.38884011286815
NAPA-1                  
1 46320U 20061BA  25311.26537451  .00038909  00000+0  78853-3 0  9991
2 46320  97.2822  16.6521 0002035 115.6784 244.4676 15.46297220287222
JILIN-1 GAOFEN 3B       
1 46454U 20065A   25311.25688230  .00058962  00000+0  85891-3 0  9995
2 46454  97.2590   0.1861 0003370 189.1613 170.9581 15.55529771285569
JILIN-1 GAOFEN 3E       
1 46457U 20065D   25311.26525871  .00034742  00000+0  75857-3 0  9991
2 46457  97.2644 356.6789 0016300 255.8613 104.0825 15.43984697285319
JILIN-1 GAOFEN 3F       
1 46458U 20065E   25311.25475342  .00033639  00000+0  75793-3 0  9991
2 46458  97.2580 354.7026 0017710 241.9882 117.9574 15.43030922285296
JILIN-1 GAOFEN 3G       
1 46459U 20065F   25311.26676811  .00040363  00000+0  81343-3 0  9997
2 46459  97.2686 359.3309 0018152 146.1333 214.1080 15.46274160285409
JILIN-1 GAOFEN 3H       
1 46460U 20065G   25311.26861009  .00037730  00000+0  77952-3 0  9999
2 46460  97.2598 356.3972 0012081  82.9189 277.3434 15.45662443285382
JILIN-1 GAOFEN 3J       
1 46462U 20065J   25311.29632803  .00059088  00000+0  91024-3 0  9998
2 46462  97.2619 359.9563 0004326 193.4828 166.6311 15.53989862285553
HAIYANG-2C              
1 46469U 20066A   25311.29308712  .00000015  00000+0  87253-4 0  9991
2 46469  65.9989  47.7496 0014199 269.8078  90.1364 13.83378932258801
HJ-2A                   
1 46478U 20067A   25311.29605925  .00000347  00000+0  57046-4 0  9993
2 46478  97.9039  29.6868 0002188 243.2172 116.8814 14.76498202275519
HJ-2B                   
1 46479U 20067B   25311.33236443  .00001448  00000+0  21501-3 0  9993
2 46479  97.9096  30.5821 0001726  69.8104 290.3292 14.76502774275526
GONETS-M 17             
1 46486U 20068A   25311.27574058  .00000034  00000+0  17629-3 0  9998
2 46486  82.4938 125.5607 0022887 158.4715 201.7332 12.42864133231590
GONETS-M 18             
1 46487U 20068B   25311.24165248  .00000045  00000+0  25005-3 0  9992
2 46487  82.4891 124.7876 0020280 155.1929 205.0131 12.42890820231578
GONETS-M 19             
1 46488U 20068C   25311.29864517  .00000025  00000+0  10836-3 0  9997
2 46488  82.4916 125.1582 0013742 168.8482 191.2905 12.42864852231689
